IRIDIUM 126             
1 42809U 17039G   24223.64984881  .00000513  00000+0  17611-3 0  9991
2 42809  86.3937 275.9306 0002364  93.7865 266.3601 14.34219364373123
IRIDIUM 124             
1 42810U 17039H   24223.90865055  .00000606  00000+0  17407-3 0  9999
2 42810  86.4498 212.5632 0002182  80.8557 279.2890 14.43292130377714
IRIDIUM 128             
1 42811U 17039J   24223.64058656  .00000065  00000+0  16182-4 0  9991
2 42811  86.3982 307.4732 0002317  88.2177 271.9284 14.34216519373154
IRIDIUM 121             
1 42812U 17039K   24223.73864451  .00000509  00000+0  17477-3 0  9990
2 42812  86.3939 275.9164 0002264  90.1274 270.0181 14.34218645373019
IRIDIUM 133             
1 42955U 17061A   24223.74206776  .00000539  00000+0  18529-3 0  9996
2 42955  86.3984 307.5320 0002298  94.1488 265.9970 14.34219956357962
IRIDIUM 122             
1 42957U 17061C   24223.77378009  .00000145  00000+0  44860-4 0  9991
2 42957  86.3982 307.4511 0002350  91.6397 268.5068 14.34216873357976
IRIDIUM 129             
1 42958U 17061D   24223.72937873  .00000024  00000+0  16599-5 0  9992
2 42958  86.3988 307.5299 0002521  96.1963 263.9520 14.34215121357984
